CTC1_L_00117001-01
1 61874U 25148Y   26070.40832176  .00000000  00000+0  00000-0 0  9991
2 61874  95.0000   0.0000 0000000   0.0000   0.0000 14.33516687    17
CTC1_L_00117001-02
1 61875U 23324YE  26070.40832176  .00000000  00000+0  00000-0 0  9996
2 61875  95.0000   0.0000 0000000   0.0000  90.0000 14.33516687    17
CTC1_L_00117001-03
1 61876U 22990LU  26070.40832176  .00000000  00000+0  00000-0 0  9995
2 61876  95.0000   0.0000 0000000   0.0000 180.0000 14.33516687    18
CTC1_L_00117001-04
1 61877U 26708GI  26070.40832176  .00000000  00000+0  00000-0 0  9997
2 61877  95.0000   0.0000 0000000   0.0000 270.0000 14.33516687    19
CTC1_L_00117002-01
1 61878U 22755PE  26070.40832176  .00000000  00000+0  00000-0 0  9996
2 61878  95.0000  12.0000 0000000   0.0000  12.0000 14.33516687    17
CTC1_L_00117002-02
1 61879U 22130RU  26070.40832176  .00000000  00000+0  00000-0 0  9994
2 61879  95.0000  12.0000 0000000   0.0000 102.0000 14.33516687    18
CTC1_L_00117002-03
1 61880U 25436ZZ  26070.40832176  .00000000  00000+0  00000-0 0  9998
2 61880  95.0000  12.0000 0000000   0.0000 192.0000 14.33516687    19
CTC1_L_00117002-04
1 61881U 24925JJ  26070.40832176  .00000000  00000+0  00000-0 0  9991
2 61881  95.0000  12.0000 0000000   0.0000 282.0000 14.33516687    10
CTC1_L_00117003-01
1 61882U 25421YP  26070.40832176  .00000000  00000+0  00000-0 0  9994
2 61882  95.0000  24.0000 0000000   0.0000  24.0000 14.33516687    18
CTC1_L_00117003-02
1 61883U 24445HC  26070.40832176  .00000000  00000+0  00000-0 0  9990
2 61883  95.0000  24.0000 0000000   0.0000 114.0000 14.33516687    19
CTC1_L_00117003-03
1 61884U 25300GD  26070.40832176  .00000000  00000+0  00000-0 0  9992
2 61884  95.0000  24.0000 0000000   0.0000 204.0000 14.33516687    10
CTC1_L_00117003-04
1 61885U 26437GS  26070.40832176  .00000000  00000+0  00000-0 0  9995
2 61885  95.0000  24.0000 0000000   0.0000 294.0000 14.33516687    10
CTC1_L_00117004-01
1 61886U 25305G   26070.40832176  .00000000  00000+0  00000-0 0  9999
2 61886  95.0000  36.0000 0000000   0.0000  36.0000 14.33516687    18
CTC1_L_00117004-02
1 61887U 23397JR  26070.40832176  .00000000  00000+0  00000-0 0  9999
2 61887  95.0000  36.0000 0000000   0.0000 126.0000 14.33516687    19
CTC1_L_00117004-03
1 61888U 23734AE  26070.40832176  .00000000  00000+0  00000-0 0  9995
2 61888  95.0000  36.0000 0000000   0.0000 216.0000 14.33516687    10
CTC1_L_00117004-04
1 61889U 22749VG  26070.40832176  .00000000  00000+0  00000-0 0  9991
2 61889  95.0000  36.0000 0000000   0.0000 306.0000 14.33516687    11
CTC1_L_00117005-01
1 61890U 25597TD  26070.40832176  .00000000  00000+0  00000-0 0  9997
2 61890  95.0000  48.0000 0000000   0.0000  48.0000 14.33516687    19
CTC1_L_00117005-02
1 61891U 23579TG  26070.40832176  .00000000  00000+0  00000-0 0  9996
2 61891  95.0000  48.0000 0000000   0.0000 138.0000 14.33516687    10
CTC1_L_00117005-03
1 61892U 26128XH  26070.40832176  .00000000  00000+0  00000-0 0  9990
2 61892  95.0000  48.0000 0000000   0.0000 228.0000 14.33516687    11
CTC1_L_00117005-04
1 61893U 24058RY  26070.40832176  .00000000  00000+0  00000-0 0  9991
2 61893  95.0000  48.0000 0000000   0.0000 318.0000 14.33516687    12
CTC1_L_00117006-01
1 61894U 24396WT  26070.40832176  .00000000  00000+0  00000-0 0  9997
2 61894  95.0000  60.0000 0000000   0.0000  60.0000 14.33516687    11
CTC1_L_00117006-02
1 61895U 24379KJ  26070.40832176  .00000000  00000+0  00000-0 0  9999
2 61895  95.0000  60.0000 0000000   0.0000 150.0000 14.33516687    12
CTC1_L_00117006-03
1 61896U 24227GO  26070.40832176  .00000000  00000+0  00000-0 0  9992
2 61896  95.0000  60.0000 0000000   0.0000 240.0000 14.33516687    13
CTC1_L_00117006-04
1 61897U 22895AF  26070.40832176  .00000000  00000+0  00000-0 0  9992
2 61897  95.0000  60.0000 0000000   0.0000 330.0000 14.33516687    14
CTC1_L_00117007-01
1 61898U 24167QJ  26070.40832176  .00000000  00000+0  00000-0 0  9997
2 61898  95.0000  72.0000 0000000   0.0000  72.0000 14.33516687    11
CTC1_L_00117007-02
1 61899U 23177XZ  26070.40832176  .00000000  00000+0  00000-0 0  9998
2 61899  95.0000  72.0000 0000000   0.0000 162.0000 14.33516687    12
CTC1_L_00117007-03
1 61900U 23648WR  26070.40832176  .00000000  00000+0  00000-0 0  9994
2 61900  95.0000  72.0000 0000000   0.0000 252.0000 14.33516687    15
CTC1_L_00117007-04
1 61901U 24194PK  26070.40832176  .00000000  00000+0  00000-0 0  9992
2 61901  95.0000  72.0000 0000000   0.0000 342.0000 14.33516687    16
CTC1_L_00117008-01
1 61902U 23536IL  26070.40832176  .00000000  00000+0  00000-0 0  9992
2 61902  95.0000  84.0000 0000000   0.0000  84.0000 14.33516687    13
CTC1_L_00117008-02
1 61903U 24623EC  26070.40832176  .00000000  00000+0  00000-0 0  9991
2 61903  95.0000  84.0000 0000000   0.0000 174.0000 14.33516687    14
CTC1_L_00117008-03
1 61904U 26501WJ  26070.40832176  .00000000  00000+0  00000-0 0  9999
2 61904  95.0000  84.0000 0000000   0.0000 264.0000 14.33516687    15
CTC1_L_00117008-04
1 61905U 24776WJ  26070.40832176  .00000000  00000+0  00000-0 0  9992
2 61905  95.0000  84.0000 0000000   0.0000 354.0000 14.33516687    16
CTC1_L_00117009-01
1 61906U 24073CZ  26070.40832176  .00000000  00000+0  00000-0 0  9993
2 61906  95.0000  96.0000 0000000   0.0000  96.0000 14.33516687    13
CTC1_L_00117009-02
1 61907U 25121XQ  26070.40832176  .00000000  00000+0  00000-0 0  9999
2 61907  95.0000  96.0000 0000000   0.0000 186.0000 14.33516687    14
CTC1_L_00117009-03
1 61908U 26265K   26070.40832176  .00000000  00000+0  00000-0 0  9990
2 61908  95.0000  96.0000 0000000   0.0000 276.0000 14.33516687    15
CTC1_L_00117009-04
1 61909U 23583FG  26070.40832176  .00000000  00000+0  00000-0 0  9991
2 61909  95.0000  96.0000 0000000   0.0000   6.0000 14.33516687    17
CTC1_L_00117010-01
1 61910U 24193JE  26070.40832176  .00000000  00000+0  00000-0 0  9991
2 61910  95.0000 108.0000 0000000   0.0000 108.0000 14.33516687    16
CTC1_L_00117010-02
1 61911U 22952YY  26070.40832176  .00000000  00000+0  00000-0 0  9993
2 61911  95.0000 108.0000 0000000   0.0000 198.0000 14.33516687    16
CTC1_L_00117010-03
1 61912U 26259MO  26070.40832176  .00000000  00000+0  00000-0 0  9998
2 61912  95.0000 108.0000 0000000   0.0000 288.0000 14.33516687    17
CTC1_L_00117010-04
1 61913U 25061EF  26070.40832176  .00000000  00000+0  00000-0 0  9999
2 61913  95.0000 108.0000 0000000   0.0000  18.0000 14.33516687    19
CTC1_L_00117011-01
1 61914U 22146ES  26070.40832176  .00000000  00000+0  00000-0 0  9991
2 61914  95.0000 120.0000 0000000   0.0000 120.0000 14.33516687    18
CTC1_L_00117011-02
1 61915U 25331XG  26070.40832176  .00000000  00000+0  00000-0 0  9991
2 61915  95.0000 120.0000 0000000   0.0000 210.0000 14.33516687    19
CTC1_L_00117011-03
1 61916U 22508BZ  26070.40832176  .00000000  00000+0  00000-0 0  9995
2 61916  95.0000 120.0000 0000000   0.0000 300.0000 14.33516687    10
CTC1_L_00117011-04
1 61917U 23319FK  26070.40832176  .00000000  00000+0  00000-0 0  9997
2 61917  95.0000 120.0000 0000000   0.0000  30.0000 14.33516687    11
CTC1_L_00117012-01
1 61918U 26423TY  26070.40832176  .00000000  00000+0  00000-0 0  9997
2 61918  95.0000 132.0000 0000000   0.0000 132.0000 14.33516687    18
CTC1_L_00117012-02
1 61919U 23790ZO  26070.40832176  .00000000  00000+0  00000-0 0  9992
2 61919  95.0000 132.0000 0000000   0.0000 222.0000 14.33516687    19
CTC1_L_00117012-03
1 61920U 23383QV  26070.40832176  .00000000  00000+0  00000-0 0  9992
2 61920  95.0000 132.0000 0000000   0.0000 312.0000 14.33516687    11
CTC1_L_00117012-04
1 61921U 25221XS  26070.40832176  .00000000  00000+0  00000-0 0  9996
2 61921  95.0000 132.0000 0000000   0.0000  42.0000 14.33516687    12
CTC1_L_00117013-01
1 61922U 26770IX  26070.40832176  .00000000  00000+0  00000-0 0  9997
2 61922  95.0000 144.0000 0000000   0.0000 144.0000 14.33516687    19
CTC1_L_00117013-02
1 61923U 25575AO  26070.40832176  .00000000  00000+0  00000-0 0  9990
2 61923  95.0000 144.0000 0000000   0.0000 234.0000 14.33516687    10
CTC1_L_00117013-03
1 61924U 26044HB  26070.40832176  .00000000  00000+0  00000-0 0  9993
2 61924  95.0000 144.0000 0000000   0.0000 324.0000 14.33516687    11
CTC1_L_00117013-04
1 61925U 22830FP  26070.40832176  .00000000  00000+0  00000-0 0  9993
2 61925  95.0000 144.0000 0000000   0.0000  54.0000 14.33516687    12
CTC1_L_00117014-01
1 61926U 24603BV  26070.40832176  .00000000  00000+0  00000-0 0  9994
2 61926  95.0000 156.0000 0000000   0.0000 156.0000 14.33516687    19
CTC1_L_00117014-02
1 61927U 22578JG  26070.40832176  .00000000  00000+0  00000-0 0  9994
2 61927  95.0000 156.0000 0000000   0.0000 246.0000 14.33516687    10
CTC1_L_00117014-03
1 61928U 25196SD  26070.40832176  .00000000  00000+0  00000-0 0  9994
2 61928  95.0000 156.0000 0000000   0.0000 336.0000 14.33516687    11
CTC1_L_00117014-04
1 61929U 25771YK  26070.40832176  .00000000  00000+0  00000-0 0  9994
2 61929  95.0000 156.0000 0000000   0.0000  66.0000 14.33516687    12
CTC1_L_00117015-01
1 61930U 25443KT  26070.40832176  .00000000  00000+0  00000-0 0  9992
2 61930  95.0000 168.0000 0000000   0.0000 168.0000 14.33516687    10
CTC1_L_00117015-02
1 61931U 23368TS  26070.40832176  .00000000  00000+0  00000-0 0  9997
2 61931  95.0000 168.0000 0000000   0.0000 258.0000 14.33516687    11
CTC1_L_00117015-03
1 61932U 24461KR  26070.40832176  .00000000  00000+0  00000-0 0  9993
2 61932  95.0000 168.0000 0000000   0.0000 348.0000 14.33516687    12
CTC1_L_00117015-04
1 61933U 25014GD  26070.40832176  .00000000  00000+0  00000-0 0  9999
2 61933  95.0000 168.0000 0000000   0.0000  78.0000 14.33516687    13
CTC1_L_00117016-01
1 61934U 22752GA  26070.40832176  .00000000  00000+0  00000-0 0  9996
2 61934  95.0000 180.0000 0000000   0.0000 180.0000 14.33516687    12
CTC1_L_00117016-02
1 61935U 24682NG  26070.40832176  .00000000  00000+0  00000-0 0  9991
2 61935  95.0000 180.0000 0000000   0.0000 270.0000 14.33516687    13
